ID,Borough_Name,Violation_Source_Description,BIN_Number,Address,Violation_Number,VioCat,DateTxt,Lat,Long,CD
6870,Queens,LL11/98,4432109,62-27 108 STREET,010413LL11/98HAZ75169,FACADES,10/30/2017,40.73622507,-73.85079664,406
6949,Brooklyn,LL11/98,3338438,869 FLUSHING AVENUE,010516FISPHAZ85961,FACADES,10/27/2017,40.70228847,-73.93750465,301
6950,Brooklyn,LL11/98,3338432,811 FLUSHING AVENUE,010516FISPHAZ85962,FACADES,8/28/2017,40.70165511,-73.94016997,301
6951,Brooklyn,LL11/98,3338435,140 MOORE STREET,010516FISPHAZ85963,FACADES,1/27/2017,40.703537,-73.9396571,301
6952,Brooklyn,LL11/98,3338439,849 FLUSHING AVENUE,010516FISPHAZ85965,FACADES,1/26/2017,40.70182831,-73.93838616,301
7602,Manhattan,LL11/98,1015424,10 WEST 18 STREET,010615FISPHAZ75455,FACADES,1/18/2017,40.73874548,-73.99292065,105
7603,Queens,LL11/98,4297683,833 CENTRAL AVENUE,010615FISPHAZ75458,FACADES,2/16/2017,40.60966058,-73.74466941,414
7616,Bronx,LL11/98,2092636,2280 RANDALL AVENUE,010616FISPHAZ85956,FACADES,10/27/2017,40.81876138,-73.84598998,209
7800,Manhattan,LL11/98,1016178,40 EAST 20 STREET,010814LL11/98HAZ74833,FACADES,7/17/2017,40.73846657,-73.98859785,105
7808,Manhattan,LL11/98,1062427,706 RIVERSIDE DRIVE,010815FISPHAZ75459,FACADES,12/13/2017,40.82861363,-73.9502384,109
7847,Manhattan,LL11/98,1010637,138 WEST 14 STREET,010816FISPHAZ85958,FACADES,6/20/2017,40.73794161,-73.99894272,102
7915,Manhattan,LL11/98,1017815,114 EAST 16 STREET,010917FISPHAZ76393,FACADES,8/28/2017,40.73532587,-73.98846981,105
7916,Manhattan,LL11/98,1079196,1581 PARK AVENUE,010917FISPHAZ86390,FACADES,11/9/2017,40.79724089,-73.94406084,111
7917,Manhattan,LL11/98,1078912,1536 LEXINGTON AVENUE,010917FISPHAZ86391,FACADES,11/9/2017,40.78756187,-73.95015698,111
7918,Manhattan,LL11/98,1017815,114 EAST 16 STREET,010917FISPHAZ86392,FACADES,8/28/2017,40.73532587,-73.98846981,105
8094,Manhattan,LL11/98,1027366,45 COLUMBUS AVENUE,011116FISPHAZ85991,FACADES,2/6/2017,40.77055346,-73.98329557,107
8142,Queens,LL11/98,4051518,62-59 108 STREET,011117FISPHAZ86396,FACADES,11/28/2017,40.73542222,-73.85042959,406
8458,Brooklyn,LL11/98,3043216,130 LEWIS AVENUE,011504LL11/98HAZ134,FACADES,4/25/2017,40.69259944,-73.93741728,303
8546,Brooklyn,LL11/98,3323302,417 BALTIC STREET,011613LL11/98HAZ74782,FACADES,12/29/2017,40.68435245,-73.98829226,306
8547,Brooklyn,LL11/98,3336072,420 BALTIC STREET,011613LL11/98HAZ74785,FACADES,12/20/2017,40.68272023,-73.9890473,306
8717,Manhattan,LL11/98,1056503,241 WEST 101 STREET,011813LL11/98HAZ74471,FACADES,12/14/2017,40.79824601,-73.9698697,107
8718,Bronx,LL11/98,2091965,749 EAST 163 STREET,011813LL11/98HAZ75214,FACADES,1/26/2017,40.82365255,-73.90384743,203
8719,Bronx,LL11/98,2086835,3320 BAILEY AVENUE,011813LL11/98HAZ75225,FACADES,4/26/2017,40.87978635,-73.90018248,208
9433,Manhattan,LL11/98,1080090,402 LAFAYETTE STREET,011912LL11/98HAZ3198,FACADES,4/10/2017,40.72849576,-73.99309008,102
9659,Manhattan,LL11/98,1015125,104 WEST 29 STREET,012016FISPHAZ75969,FACADES,4/14/2017,40.74671191,-73.99080221,105
9660,Manhattan,LL11/98,1015125,104 WEST 29 STREET,012016FISPHAZ85970,FACADES,4/14/2017,40.74671191,-73.99080221,105
9846,Bronx,LL11/98,2091962,770 EAST 165 STREET,012213LL11/98HAZ73853,FACADES,1/26/2017,40.82447143,-73.90292017,203
9996,Manhattan,LL11/98,1016110,99 5 AVENUE,012317FISPHAZ76405,FACADES,8/28/2017,40.73799812,-73.99176052,105
9997,Manhattan,LL11/98,1016110,99 5 AVENUE,012317FISPHAZ86406,FACADES,8/28/2017,40.73799812,-73.99176052,105
10217,Manhattan,LL11/98,1085774,34 RIVER TERRACE,012517FISPHAZ86414,FACADES,7/20/2017,40.71778205,-74.01507217,101
10419,Manhattan,LL11/98,1080705,2095 3 AVENUE,012716FISPHAZ85974,FACADES,1/18/2017,40.79678455,-73.940416,111
10420,Manhattan,LL11/98,1081086,310 EAST 115 STREET,012716FISPHAZ85975,FACADES,1/26/2017,40.79579792,-73.93818227,111
10421,Manhattan,LL11/98,1080708,2227 2 AVENUE,012716FISPHAZ85978,FACADES,1/26/2017,40.79611917,-73.93886251,111
10422,Manhattan,LL11/98,1080704,2065 3 AVENUE,012716FISPHAZ85983,FACADES,1/26/2017,40.79605955,-73.94061406,111
10423,Manhattan,LL11/98,1081088,320 EAST 115 STREET,012716FISPHAZ85984,FACADES,1/26/2017,40.79558875,-73.93761185,111
10424,Manhattan,LL11/98,1080707,228 EAST 115 STREET,012716FISPHAZ85985,FACADES,1/26/2017,40.79633922,-73.93938897,111
10694,Queens,LL11/98,4045575,89-50 56 AVENUE,013017FISPHAZ86432,FACADES,11/20/2017,40.73517125,-73.87292459,404
10695,Manhattan,LL11/98,1055038,81 LENOX AVENUE,013017FISPHAZ86433,FACADES,10/26/2017,40.8013417,-73.95093462,110
11412,Manhattan,LL11/98,1015419,118 5 AVENUE,013113LL11/98FISPNRF0433,FACADES,9/29/2017,40.7381855,-73.99245079,105
11417,Bronx,LL11/98,2093496,1160 BURKE AVENUE,013114LL11/98HAZ75033,FACADES,10/30/2017,40.87086054,-73.85325259,211
11418,Bronx,LL11/98,2093492,1245 ADEE AVENUE,013114LL11/98HAZ75038,FACADES,11/13/2017,40.86970605,-73.85112621,211
11419,Bronx,LL11/98,2093490,1130 BURKE AVENUE,013114LL11/98HAZ75039,FACADES,10/30/2017,40.87075192,-73.85400791,211
11420,Bronx,LL11/98,2093500,1230 BURKE AVENUE,013114LL11/98HAZ75041,FACADES,11/9/2017,40.87082521,-73.85142078,211
11421,Bronx,LL11/98,2093503,3010 YATES AVENUE,013114LL11/98HAZ75046,FACADES,11/9/2017,40.87008691,-73.85398883,211
11422,Bronx,LL11/98,2093494,3055 BOUCK AVENUE,013114LL11/98HAZ75047,FACADES,11/9/2017,40.87024642,-73.85033742,211
11423,Bronx,LL11/98,2093498,1210 BURKE AVENUE,013114LL11/98HAZ75048,FACADES,10/30/2017,40.8708416,-73.85233038,211
11424,Bronx,LL11/98,2101735,2955 WHITE PLAINS ROAD,013114LL11/98HAZ75086,FACADES,10/27/2017,40.86899166,-73.86791754,211
11425,Bronx,LL11/98,2101745,2950 BRONX PARK EAST,013114LL11/98HAZ75088,FACADES,10/27/2017,40.8688154,-73.8691107,211
11577,Manhattan,LL11/98,1036149,628 3 AVENUE,020117FISPHAZ86435,FACADES,9/13/2017,40.7500122,-73.97540443,106
11578,Manhattan,LL11/98,1017184,34 EAST 37 STREET,020117FISPHAZ86437,FACADES,11/30/2017,40.74896792,-73.98052083,106
11746,Manhattan,LL11/98,1081128,9 WEST 53 STREET,020217FISPHAZ86442,FACADES,10/30/2017,40.76118622,-73.97701146,105
11759,Bronx,LL11/98,2101742,644 ADEE AVENUE,020314LL11/98HAZ75045,FACADES,4/25/2017,40.86920667,-73.86903404,211
12013,Manhattan,LL11/98,1083664,132 CLAREMONT AVENUE,020613LL11/98HAZ74072,FACADES,1/3/2017,40.8127318,-73.96118001,109
12023,Manhattan,LL11/98,1001091,14 MAIDEN LANE,020614LL11/98HAZ74946,FACADES,8/31/2017,40.70928014,-74.00938738,101
12119,Manhattan,LL11/98,1047537,108 EAST 81 STREET,020617FISPHAZ86461,FACADES,11/21/2017,40.77642121,-73.95882265,108
12627,Manhattan,LL11/98,1078385,450 EAST 63 STREET,020713LL11/98HAZ73908,FACADES,12/13/2017,40.76134677,-73.95890447,108
12628,Bronx,LL11/98,2093465,2825 OLINVILLE AVENUE,020713LL11/98HAZ75096,FACADES,4/25/2017,40.8672041,-73.86861549,211
12629,Bronx,LL11/98,2101744,2910 BRONX PARK EAST,020713LL11/98HAZ75097,FACADES,1/30/2017,40.86841747,-73.8701959,211
12630,Bronx,LL11/98,2101746,2970 BRONX PARK EAST,020713LL11/98HAZ75098,FACADES,1/30/2017,40.86922533,-73.87021865,211
12706,Brooklyn,LL11/98,3118059,2801 BEVERLY ROAD,020717FISPHAZ76480,FACADES,9/7/2017,40.64529671,-73.95065609,317
12707,Manhattan,LL11/98,1072488,304 EAST 65 STREET,020717FISPHAZ86470,FACADES,8/28/2017,40.76397062,-73.96152987,108
12708,Brooklyn,LL11/98,3118059,2801 BEVERLY ROAD,020717FISPHAZ86481,FACADES,9/7/2017,40.64529671,-73.95065609,317
13596,Manhattan,LL11/98,1080634,37 WEST 17 STREET,021115FISPHAZ75471,FACADES,1/18/2017,40.738881,-73.99398709,105
13639,Manhattan,LL11/98,1002733,30 VARICK STREET,021213LL11/98HAZ74250,FACADES,4/14/2017,40.72062688,-74.00618275,101
14305,Brooklyn,LL11/98,3188416,3601 NEPTUNE AVENUE,021312LL11/98HAZ3224,FACADES,4/4/2017,40.57781728,-74.00230156,313
14306,Brooklyn,LL11/98,3253907,2750 WEST 33 STREET,021312LL11/98HAZ3227,FACADES,3/24/2017,40.57761264,-74.00114471,313
14307,Brooklyn,LL11/98,3253907,2750 WEST 33 STREET,021312LL11/98HAZ3228,FACADES,3/24/2017,40.57761264,-74.00114471,313
14308,Brooklyn,LL11/98,3413889,505 FULTON STREET,021312LL11/98HAZ73435,FACADES,8/28/2017,40.69095362,-73.98487783,302
14388,Queens,LL11/98,4438544,25-40 SHORE BOULEVARD,021317FISPHAZ86512,FACADES,11/20/2017,40.77604182,-73.92913767,401
14475,Manhattan,LL11/98,1031135,41 WEST 81 STREET,021417FISPHAZ86523,FACADES,8/28/2017,40.78314455,-73.97369229,107
14508,Brooklyn,LL11/98,3000265,6 METROTECH CENTER,021513LL11/98HAZ73970,FACADES,7/13/2017,40.69419803,-73.98656976,302
14509,Manhattan,LL11/98,1015096,315 7 AVENUE,021513LL11/98HAZ74189,FACADES,5/19/2017,40.74696376,-73.99322994,105
14602,Queens,LL11/98,4103995,166-25 POWELLS COVE BOULEVARD,021517FISPHAZ86530,FACADES,10/25/2017,40.79456399,-73.79655871,407
14603,Manhattan,LL11/98,1014418,260 WEST 35 STREET,021517FISPHAZ86536,FACADES,12/12/2017,40.7524367,-73.99256424,105
14617,Queens,LL11/98,4080126,83-00 TALBOT STREET,021612LL11/98HAZ73295,FACADES,1/23/2017,40.70940209,-73.82890657,409
14657,Manhattan,LL11/98,1086498,1831 MADISON AVENUE,021616FISPHAZ76010,FACADES,10/13/2017,40.80212039,-73.94294209,111
14658,Manhattan,LL11/98,1086498,1831 MADISON AVENUE,021616FISPHAZ86011,FACADES,10/13/2017,40.80212039,-73.94294209,111
14713,Brooklyn,LL11/98,3385341,225 AVENUE T,021617FISPHAZ86543,FACADES,10/20/2017,40.59912069,-73.97654891,311
14714,Brooklyn,LL11/98,3002556,85 LIVINGSTON STREET,021617FISPHAZ86555,FACADES,12/11/2017,40.6916294,-73.99052493,302
14715,Manhattan,LL11/98,1087261,30 WEST 18 STREET,021617FISPHAZ86565,FACADES,6/1/2017,40.73901166,-73.99357808,105
14734,Manhattan,LL11/98,1031135,41 WEST 81 STREET,021712LL11/98HAZ73321,FACADES,8/28/2017,40.78314455,-73.97369229,107
14735,Manhattan,LL11/98,1012047,445 WEST STREET,021712LL11/98HAZ73365,FACADES,6/30/2017,40.73655989,-74.00901108,102
14736,Bronx,LL11/98,2002295,1175 FINDLAY AVENUE,021712LL11/98HAZ73369,FACADES,3/16/2017,40.83233414,-73.91294467,204
14737,Bronx,LL11/98,2091245,1000 ANDERSON AVENUE,021712LL11/98HAZ73464,FACADES,6/7/2017,40.83221266,-73.92679017,204
14738,Bronx,LL11/98,2091244,1005 JEROME AVENUE,021712LL11/98HAZ73466,FACADES,6/7/2017,40.83168404,-73.92661348,204
14897,Brooklyn,LL11/98,3020603,255 1 STREET,021717FISPHAZ86571,FACADES,11/1/2017,40.67503731,-73.98398604,306
14898,Manhattan,LL11/98,1076225,25 CENTRAL PARK WEST,021717FISPHAZ86583,FACADES,11/20/2017,40.77041886,-73.98083022,107
14899,Brooklyn,LL11/98,3181963,1580 EAST 18 STREET,021717FISPHAZ86584,FACADES,10/3/2017,40.61161055,-73.95620577,314
14900,Manhattan,LL11/98,1076281,400 E 54 ST,021717FISPHAZ86598,FACADES,6/19/2017,40.75601545,-73.96410807,106
14901,Manhattan,LL11/98,1041367,34 EAST 72 STREET,021717FISPHAZ86600,FACADES,8/28/2017,40.77132887,-73.96500516,108
14902,Manhattan,LL11/98,1015583,200 5 AVENUE,021717FISPHAZ86601,FACADES,8/29/2017,40.74215526,-73.98989927,105
14903,Manhattan,LL11/98,1055718,193 MANHATTAN AVENUE,021717FISPHAZ86612,FACADES,10/20/2017,40.80026249,-73.96065992,107
14904,Manhattan,LL11/98,1082358,116 PINEHURST AVENUE,021717FISPHAZ86615,FACADES,10/25/2017,40.85226572,-73.93919298,112
14905,Manhattan,LL11/98,1082359,128 PINEHURST AVENUE,021717FISPHAZ86616,FACADES,11/30/2017,40.85250214,-73.93899307,112
14906,Manhattan,LL11/98,1082360,134FRONT PINEHURST AVENUE,021717FISPHAZ86617,FACADES,11/30/2017,40.8527488,-73.93896126,112
14907,Manhattan,LL11/98,1006480,204 2 AVENUE,021717FISPHAZ86639,FACADES,10/20/2017,40.73121533,-73.98495797,103
14908,Manhattan,LL11/98,1083622,230 WEST 36 STREET,021717FISPHAZ86651,FACADES,12/11/2017,40.75262346,-73.99109493,105
14909,Manhattan,LL11/98,1015969,1 WEST 37 STREET,021717FISPHAZ86652,FACADES,6/5/2017,40.75082419,-73.9837332,105
14927,Bronx,LL11/98,2009013,1730 ANDREWS AVENUE,021814LL11/98HAZ74986,FACADES,1/23/2017,40.85000405,-73.91736473,205
15024,Manhattan,LL11/98,1035317,290 MADISON AVENUE,021817FISPHAZ86625,FACADES,8/1/2017,40.75188738,-73.9803019,105
15105,Manhattan,LL11/98,1045174,1461 1 AVENUE,021913LL11/98HAZ73960,FACADES,8/28/2017,40.77073603,-73.95431262,108
15106,Manhattan,LL11/98,1089696,784 COLUMBUS AVENUE,021913LL11/98HAZ73968,FACADES,2/6/2017,40.79431967,-73.96744438,107
15107,Queens,LL11/98,4441830,47-40 21 STREET,021913LL11/98HAZ73978,FACADES,5/2/2017,40.74370373,-73.94930176,402
15108,Staten Island,LL11/98,5109140,35 HOLLAND AVENUE,021913LL11/98HAZ74124,FACADES,4/10/2017,40.63961855,-74.16984656,501
15109,Staten Island,LL11/98,5109139,85 HOLLAND AVENUE,021913LL11/98HAZ74125,FACADES,4/10/2017,40.63847434,-74.17074382,501
15110,Staten Island,LL11/98,5112688,65 HOLLAND AVENUE,021913LL11/98HAZ74126,FACADES,4/10/2017,40.63896566,-74.16984226,501
15111,Staten Island,LL11/98,5112687,55 HOLLAND AVENUE,021913LL11/98HAZ74127,FACADES,4/10/2017,40.63912303,-74.17075057,501
15112,Bronx,LL11/98,2003556,1380 UNIVERSITY AVENUE,021913LL11/98HAZ74197,FACADES,6/30/2017,40.84250126,-73.92535907,204
15126,Manhattan,LL11/98,1024898,224 WEST 57 STREET,021915FISPHAZ75493,FACADES,4/17/2017,40.76582551,-73.98154615,105
15127,Manhattan,LL11/98,1061738,500 WEST 140 STREET,021915FISPHAZ75495,FACADES,7/18/2017,40.82202221,-73.95037806,109
15177,Manhattan,LL11/98,1082368,419 EAST 93 STREET,022010LL11/98HAZ2952,FACADES,4/18/2017,40.78117979,-73.94477566,108
15178,Manhattan,LL11/98,1082366,1830 FIRST AVENUE,022010LL11/98HAZ2953,FACADES,4/18/2017,40.7820225,-73.94479511,108
15179,Manhattan,LL11/98,1082365,1806 FIRST AVENUE,022010LL11/98HAZ2954,FACADES,4/18/2017,40.78149314,-73.94548489,108
15180,Manhattan,LL11/98,1080706,218 EAST 115 STREET,022010LL11/98HAZ2955,FACADES,1/27/2017,40.79655923,-73.93991489,111
15181,Manhattan,LL11/98,1054411,115 EAST 122 STREET,022010LL11/98HAZ2979,FACADES,4/26/2017,40.8028746,-73.93938659,111
15196,Manhattan,LL11/98,1014472,584 8 AVENUE,022015FISPHAZ75506,FACADES,6/30/2017,40.75495758,-73.99110815,105
15197,Brooklyn,LL11/98,3153886,8901 SHORE ROAD,022015FISPHAZ75514,FACADES,5/26/2017,40.62309087,-74.04031867,310
15198,Manhattan,LL11/98,1017946,251 PARK AVENUE SOUTH,022015FISPHAZ75516,FACADES,3/2/2017,40.73834511,-73.98731718,105
15199,Manhattan,LL11/98,1002171,8 BEACH STREET,022015FISPHAZ75519,FACADES,11/15/2017,40.72011393,-74.00620528,101
15200,Manhattan,LL11/98,1063896,129 WADSWORTH AVENUE,022015FISPHAZ75522,FACADES,11/27/2017,40.84887164,-73.9353216,112
15201,Manhattan,LL11/98,1034514,7 WEST 51 STREET,022015FISPHAZ75525,FACADES,7/17/2017,40.75971779,-73.97746516,105
15202,Brooklyn,LL11/98,3054043,400 HERKIMER STREET,022015FISPHAZ75538,FACADES,11/28/2017,40.67873534,-73.94027907,303
15288,Brooklyn,LL11/98,3246946,2775 EAST 12 STREET,022017FISPHAZ86712,FACADES,7/24/2017,40.58364005,-73.95678931,315
15289,Brooklyn,LL11/98,3246945,2750 HOMECREST AVENUE,022017FISPHAZ86722,FACADES,7/19/2017,40.58425748,-73.95660827,315
15290,Manhattan,LL11/98,1062427,706 RIVERSIDE DRIVE,022017FISPHAZ86726,FACADES,12/13/2017,40.82861363,-73.9502384,109
15299,Manhattan,LL11/98,1028821,44 WEST 77 STREET,022112LL11/98HAZ73346,FACADES,4/17/2017,40.78012739,-73.97577732,107
15300,Manhattan,LL11/98,1015602,1101 BROADWAY,022112LL11/98HAZ73484,FACADES,1/30/2017,40.74271166,-73.98956073,105
15308,Bronx,LL11/98,2092445,40 WEST MOSHOLU PA,022113LL11/98HAZ74063,FACADES,4/24/2017,40.87928157,-73.88622508,207
15309,Bronx,LL11/98,2092444,20 WEST MOSHOLU PARKWAY SOUT,022113LL11/98HAZ74080,FACADES,1/23/2017,40.87991418,-73.8862036,207
15377,Manhattan,LL11/98,1026780,814 10 AVENUE,022117FISPHAZ86660,FACADES,8/11/2017,40.76724703,-73.98954338,104
15378,Manhattan,LL11/98,1027178,850 12 AVENUE,022117FISPHAZ86662,FACADES,9/6/2017,40.77189818,-73.99209794,104
15379,Manhattan,LL11/98,1081145,611 5 AVENUE,022117FISPHAZ86670,FACADES,8/28/2017,40.75801971,-73.97694453,105
15380,Manhattan,LL11/98,1035256,1430 6 AVENUE,022117FISPHAZ86677,FACADES,6/2/2017,40.7652354,-73.97603713,105
15381,Manhattan,LL11/98,1008793,718 BROADWAY,022117FISPHAZ86684,FACADES,8/28/2017,40.72895903,-73.99335077,102
15382,Manhattan,LL11/98,1082174,506 EAST 75 STREET,022117FISPHAZ86698,FACADES,8/28/2017,40.76789216,-73.95114107,108
15383,Bronx,LL11/98,2117976,1330 INTERVALE AVENUE,022117FISPHAZ86740,FACADES,6/9/2017,40.83100396,-73.89253753,203
15384,Brooklyn,LL11/98,3209903,3626 KINGS HIGHWAY,022117FISPHAZ86741,FACADES,9/15/2017,40.6210525,-73.93948072,318
15385,Manhattan,LL11/98,1035321,295 MADISON AVENUE,022117FISPHAZ86746,FACADES,7/24/2017,40.75179054,-73.9794356,105
15386,Manhattan,LL11/98,1033752,90 RIVERSIDE DRIVE,022117FISPHAZ86763,FACADES,12/11/2017,40.78619805,-73.98090194,107
15387,Bronx,LL11/98,2094530,1650 SELWYN AVENUE,022117FISPHAZ86768,FACADES,6/12/2017,40.84360389,-73.91010768,204
15388,Manhattan,LL11/98,1032699,203 WEST 81 STREET,022117FISPHAZ86790,FACADES,11/13/2017,40.78491577,-73.9778876,107
15389,Bronx,LL11/98,2017681,31 WEST MOSHOLU PARKWAY NORT,022117FISPHAZ86801,FACADES,8/11/2017,40.88196091,-73.88430113,207
15390,Manhattan,LL11/98,1024995,330 WEST 45 STREET,022117FISPHAZ86803,FACADES,10/30/2017,40.75960641,-73.98997264,104
15410,Manhattan,LL11/98,1063406,720 WEST 170 STREET,022212LL11/98NRF46962,FACADES,9/21/2017,40.84360189,-73.94251699,112
15462,Manhattan,LL11/98,1016115,11 EAST 17 STREET,022216FISPHAZ76016,FACADES,1/23/2017,40.73772231,-73.99117917,105
15463,Manhattan,LL11/98,1015418,11 WEST 17 STREET,022216FISPHAZ76018,FACADES,4/7/2017,40.73844373,-73.99292261,105
15464,Manhattan,LL11/98,1015471,21 WEST 19 STREET,022216FISPHAZ76022,FACADES,4/14/2017,40.73977983,-73.99255082,105
15465,Manhattan,LL11/98,1016115,11 EAST 17 STREET,022216FISPHAZ86017,FACADES,1/23/2017,40.73772231,-73.99117917,105
15466,Manhattan,LL11/98,1015418,11 WEST 17 STREET,022216FISPHAZ86019,FACADES,4/7/2017,40.73844373,-73.99292261,105
15467,Manhattan,LL11/98,1015471,21 WEST 19 STREET,022216FISPHAZ86023,FACADES,4/14/2017,40.73977983,-73.99255082,105
15526,Manhattan,LL11/98,1080001,5210 BROADWAY,022309LL11/98HAZ2399,FACADES,7/27/2017,40.87465535,-73.90882349,208
15586,Manhattan,LL11/98,1025107,312 WEST 48 STREET,022316FISPHAZ76024,FACADES,7/18/2017,40.76116074,-73.98785703,104
15587,Manhattan,LL11/98,1025107,312 WEST 48 STREET,022316FISPHAZ86025,FACADES,7/18/2017,40.76116074,-73.98785703,104
18854,Brooklyn,LL11/98,3055380,325 DE KALB AVENUE,022497LL10/80HZ138,FACADES,10/11/2017,40.68889927,-73.96253917,302
19790,Manhattan,LL11/98,1001100,176 BROADWAY,022916FISPHAZ86031,FACADES,3/6/2017,40.70983828,-74.00950849,101
22135,Brooklyn,LL11/98,3253907,3325 NEPTUNE AVENUE,030402LL10/80HZ1135,FACADES,10/4/2017,40.57761264,-74.00114471,313
22136,Brooklyn,LL11/98,3253907,3325 NEPTUNE AVENUE,030402LL10/80HZ1136,FACADES,4/26/2017,40.57761264,-74.00114471,313
22137,Brooklyn,LL11/98,3253907,3325 NEPTUNE AVENUE,030402LL10/80HZ1137,FACADES,10/4/2017,40.57761264,-74.00114471,313
22138,Brooklyn,LL11/98,3253907,3325 NEPTUNE AVENUE,030402LL10/80HZ1138,FACADES,3/2/2017,40.57761264,-74.00114471,313
22655,Manhattan,LL11/98,1015624,212 5 AVENUE,030804LL11/98HAZ212,FACADES,2/13/2017,40.74347152,-73.98868277,105
22656,Manhattan,LL11/98,1014948,153 WEST 23 STREET,030804LL11/98HAZ214,FACADES,1/23/2017,40.74395069,-73.99459692,104
23385,Bronx,LL11/98,2091244,1005 JEROME AVENUE,031210LL11/98HAZ2722,FACADES,6/7/2017,40.83168404,-73.92661348,204
23392,Manhattan,LL11/98,1022568,1446 BROADWAY,031213LL11/98HAZ74002,FACADES,12/11/2017,40.7546726,-73.9862753,105
23395,Manhattan,LL11/98,1003224,227 MADISON STREET,031214LL11/98HAZ75018,FACADES,11/28/2017,40.71317359,-73.98786628,103
23760,Brooklyn,LL11/98,3024654,78 8 AVENUE,031517FISPHAZ86867,FACADES,10/13/2017,40.67333939,-73.97335281,306
23844,Manhattan,LL11/98,1018157,116 EAST 27 STREET,031616FISPHAZ76048,FACADES,1/18/2017,40.74217425,-73.98381611,105
23845,Manhattan,LL11/98,1018157,116 EAST 27 STREET,031616FISPHAZ86049,FACADES,1/18/2017,40.74217425,-73.98381611,105
24544,Brooklyn,LL11/98,3328133,393 POWELL STREET,031810LL11/98HAZ2743,FACADES,4/25/2017,40.66478363,-73.9021293,316
25562,Brooklyn,LL11/98,3336056,272 WYCKOFF STREET,031910LL11/98HAZ2747,FACADES,1/30/2017,40.6829209,-73.98346415,306
25607,Brooklyn,LL11/98,3327725,383 CLARKSON AVENUE,032012LL11/98NRF46993,FACADES,8/29/2017,40.65645299,-73.94687512,309
25842,Manhattan,LL11/98,1079501,2006 ADAM C POWELL BOULEVARD,032114LL11/98HAZ75027,FACADES,1/23/2017,40.80607632,-73.9509433,110
25843,Manhattan,LL11/98,1000835,82 BEAVER STREET,032114LL11/98HAZ75028,FACADES,8/28/2017,40.70522305,-74.00854182,101
26106,Brooklyn,LL11/98,3337289,3525 NOSTRAND AVENUE,032310LL11/98HAZ2785,FACADES,2/13/2017,40.59790931,-73.94104988,315
26107,Brooklyn,LL11/98,3324731,20 LEWIS AVENUE,032310LL11/98HAZ2787,FACADES,10/30/2017,40.69704068,-73.93840882,303
26296,Manhattan,LL11/98,1030308,515 WEST 59 STREET,032416FISPHAZ76051,FACADES,8/28/2017,40.77112423,-73.98834146,107
26297,Manhattan,LL11/98,1030308,515 WEST 59 STREET,032416FISPHAZ86052,FACADES,8/28/2017,40.77112423,-73.98834146,107
26977,Brooklyn,LL11/98,3338600,44 MARCUS GARVEY BOULEVARD,032610LL11/98HAZ2795,FACADES,10/30/2017,40.69808671,-73.9415555,303
28385,Brooklyn,LL11/98,3071357,130 HUMBOLDT STREET,040510LL11/98HAZ2806,FACADES,12/15/2017,40.70574669,-73.94096379,301
28386,Brooklyn,LL11/98,3322044,3030 SURF AVENUE,040510LL11/98HAZ2813,FACADES,4/26/2017,40.57212195,-73.99697438,313
28387,Brooklyn,LL11/98,3322042,3020 SURF AVENUE,040510LL11/98HAZ2814,FACADES,4/25/2017,40.57226661,-73.99635063,313
28388,Brooklyn,LL11/98,3322045,3002 SURF AVENUE,040510LL11/98HAZ2815,FACADES,4/25/2017,40.57211883,-73.99569207,313
28663,Brooklyn,LL11/98,3071363,110 HUMBOLDT STREET,040710LL11/98HAZ2816,FACADES,12/14/2017,40.70498412,-73.94083898,301
28664,Brooklyn,LL11/98,3322043,3025 WEST 32 STREET,040710LL11/98HAZ2825,FACADES,4/25/2017,40.57202486,-73.99753851,313
28893,Brooklyn,LL11/98,3071360,155 SEIGEL STREET,040910LL11/98HAZ2836,FACADES,11/9/2017,40.70486305,-73.94021514,301
29270,Brooklyn,LL11/98,3071361,120 HUMBOLDT STREET,041310LL11/98HAZ2840,FACADES,11/9/2017,40.70527359,-73.94028305,301
29271,Brooklyn,LL11/98,3071362,124 HUMBOLDT STREET,041310LL11/98HAZ2841,FACADES,12/15/2017,40.70557202,-73.9403324,301
29272,Manhattan,LL11/98,1081088,320 EAST 115 STREET,041310LL11/98HAZ2842,FACADES,1/26/2017,40.79558875,-73.93761185,111
29273,Queens,LL11/98,4433391,41-03 10 STREET,041310LL11/98HAZ2843,FACADES,3/22/2017,40.7547899,-73.94473728,401
29274,Queens,LL11/98,4433416,41-06 12 STREET,041310LL11/98HAZ2848,FACADES,3/22/2017,40.75373212,-73.94329828,401
29275,Queens,LL11/98,4433399,41-01 VERNON BOULEVARD,041310LL11/98HAZ2857,FACADES,1/27/2017,40.75612125,-73.94715056,401
29397,Manhattan,LL11/98,1054407,1982 LEXINGTON AVENUE,041415FISPHAZ75573,FACADES,6/30/2017,40.80222671,-73.9392997,111
29398,Manhattan,LL11/98,1054407,1982 LEXINGTON AVENUE,041415FISPHAZ85574,FACADES,6/30/2017,40.80222671,-73.9392997,111
29546,Brooklyn,LL11/98,3153886,8901 SHORE ROAD,041516FISPHAZ86062,FACADES,5/26/2017,40.62309087,-74.04031867,310
29838,Manhattan,LL11/98,1064256,390 FT WASHINGTON AVENUE,041817FISPHAZ86910,FACADES,7/19/2017,40.84819223,-73.93910316,112
29851,Brooklyn,LL11/98,3071359,330 BUSHWICK AVENUE,041910LL11/98HAZ2861,FACADES,11/9/2017,40.70512372,-73.93965694,301
29852,Manhattan,LL11/98,1080704,2065 THIRD AVENUE,041910LL11/98HAZ2863,FACADES,1/26/2017,40.79605955,-73.94061406,111
29853,Manhattan,LL11/98,1080705,2095 THIRD AVENUE,041910LL11/98HAZ2865,FACADES,1/18/2017,40.79678455,-73.940416,111
29856,Manhattan,LL11/98,1040752,5 EAST 59 STREET,041911LL11/98HAZ3081,FACADES,1/18/2017,40.76417095,-73.97226964,108
29857,Manhattan,LL11/98,1040752,5 EAST 59 STREET,041911LL11/98HAZ3082,FACADES,1/18/2017,40.76417095,-73.97226964,108
30394,Manhattan,LL11/98,1063864,598 WEST 191 STREET,042310LL11/98HAZ2882,FACADES,4/6/2017,40.85524272,-73.92900683,112
30395,Manhattan,LL11/98,1063864,598 WEST 191 STREET,042310LL11/98HAZ2883,FACADES,4/6/2017,40.85524272,-73.92900683,112
30524,Bronx,LL11/98,2017682,3418 GATES PLACE,042512LL11/98NRF47033,FACADES,11/14/2017,40.88226851,-73.88399585,207
30670,Queens,LL11/98,4000969,50-05 43 AVENUE,042605LL11/98NRF541837,FACADES,3/10/2017,40.74466988,-73.91423894,402
30675,Bronx,LL11/98,2004526,601 EAST 166 STREET,042612LL11/98NRF47029,FACADES,12/13/2017,40.82725981,-73.90385337,203
31523,Manhattan,LL11/98,1084519,2949 8 AVENUE,050409LL11/98HAZ2479,FACADES,7/27/2017,40.83099492,-73.93860602,110
31605,Queens,LL11/98,4432199,46-10 61TH ST,050416FISPHAZ86078,FACADES,4/17/2017,40.7403685,-73.90347783,402
31606,Queens,LL11/98,4432195,59-02 QUEENS BOULEVARD,050416FISPHAZ86079,FACADES,4/18/2017,40.74112185,-73.90590195,402
31607,Queens,LL11/98,4432197,59-15 47 AVENUE,050416FISPHAZ86080,FACADES,3/28/2017,40.74057062,-73.90559567,402
31608,Queens,LL11/98,4432207,60-10 47 AVE,050416FISPHAZ86081,FACADES,5/8/2017,40.73956832,-73.90410558,402
31609,Queens,LL11/98,4432208,47-30 61 ST,050416FISPHAZ86082,FACADES,3/15/2017,40.73877485,-73.90410025,402
32170,Manhattan,LL11/98,1086089,83 COLUMBIA STREET,050508LL11/98HAZ1973,FACADES,2/16/2017,40.71827577,-73.98011165,103
32335,Queens,LL11/98,4304907,133 BEACH 120 STREET,050615FISPHAZ75583,FACADES,3/24/2017,40.57675687,-73.83979701,414
32336,Manhattan,LL11/98,1041721,30 EAST 76 STREET,050615FISPHAZ75585,FACADES,5/30/2017,40.77413781,-73.96342194,108
32337,Queens,LL11/98,4304907,133 BEACH 120 STREET,050615FISPHAZ85584,FACADES,3/24/2017,40.57675687,-73.83979701,414
32338,Manhattan,LL11/98,1041721,30 EAST 76 STREET,050615FISPHAZ85586,FACADES,5/30/2017,40.77413781,-73.96342194,108
32447,Manhattan,LL11/98,1085485,601 AMSTERDAM AVENUE,050814LL11/98HAZ75139,FACADES,4/7/2017,40.78982889,-73.97301265,107
32535,Manhattan,LL11/98,1079200,2070 3 AVENUE,050914LL11/98HAZ75141,FACADES,1/26/2017,40.79658206,-73.9415586,111
32579,Queens,LL11/98,4179872,259-10 HILLSIDE AVENUE,050916FISPHAZ76089,FACADES,3/2/2017,40.73696546,-73.70881876,413
32580,Queens,LL11/98,4179872,259-10 HILLSIDE AVENUE,050916FISPHAZ86090,FACADES,3/2/2017,40.73696546,-73.70881876,413
33084,Queens,LL11/98,4435247,109-30 160 STREET,051409LL11/98HAZ2489,FACADES,7/27/2017,40.69311981,-73.79220896,412
34398,Manhattan,LL11/98,1038592,227 EAST 56 STREET,051613LL11/98HAZ74159,FACADES,10/30/2017,40.75932492,-73.96682619,106
34682,Brooklyn,LL11/98,3324972,997 DEKALB AVENUE,051809LL11/98LLFJL03,FACADES,11/6/2017,40.69360848,-73.93520596,303
34683,Brooklyn,LL11/98,3324972,997 DEKALB AVENUE,051809LL11/98LLFJLO3,FACADES,11/6/2017,40.69360848,-73.93520596,303
34988,Bronx,LL11/98,2091858,3125 TIBBETT AVENUE,052112LL11/98HAZ73556,FACADES,5/30/2017,40.88149247,-73.90811203,208
35100,Queens,LL11/98,4430873,34-03 21 STREET,052313LL11/98275020,FACADES,1/30/2017,40.76210482,-73.93415791,401
35101,Queens,LL11/98,4430873,34-03 21 STREET,052313LL11/98710664,FACADES,1/30/2017,40.76210482,-73.93415791,401
35239,Brooklyn,LL11/98,3055849,50 GREENE AVENUE,052412LL11/98HAZ73531,FACADES,6/5/2017,40.68595297,-73.97068648,302
35241,Brooklyn,LL11/98,3324022,215 WORTMAN AVENUE,052413LL11/98HAZ74349,FACADES,11/13/2017,40.65716455,-73.88562613,305
35242,Bronx,LL11/98,2093746,1930 SCHIEFFELIN AVENUE,052413LL11/98HAZ74351,FACADES,4/26/2017,40.88438844,-73.84340075,212
35243,Bronx,LL11/98,2093747,1851 SCHIEFFELIN PLACE,052413LL11/98HAZ74352,FACADES,10/26/2017,40.88260837,-73.84446839,212
35244,Brooklyn,LL11/98,3324019,570 STANLEY AVENUE,052413LL11/98HAZ74354,FACADES,12/14/2017,40.65742625,-73.88721945,305
35245,Brooklyn,LL11/98,3324018,640 STANLEY AVENUE,052413LL11/98HAZ74358,FACADES,12/28/2017,40.65856165,-73.88458914,305
35246,Bronx,LL11/98,2093751,1891 SCHIEFFELIN PLACE,052413LL11/98HAZ74367,FACADES,10/26/2017,40.88392264,-73.84263411,212
35247,Brooklyn,LL11/98,3324017,225 WORTMAN AVENUE,052413LL11/98HAZ74373,FACADES,8/31/2017,40.65738733,-73.88511272,305
35248,Bronx,LL11/98,2093748,1861 SCHIEFFELIN PLACE,052413LL11/98HAZ74377,FACADES,10/26/2017,40.8831258,-73.84427278,212
35249,Bronx,LL11/98,2093742,1880 SCHIEFFELIN AVENUE,052413LL11/98HAZ74378,FACADES,10/26/2017,40.88345339,-73.84470774,212
35250,Brooklyn,LL11/98,3337067,190 WORTMAN AVENUE,052413LL11/98HAZ74576,FACADES,12/28/2017,40.65620176,-73.88563039,305
35251,Brooklyn,LL11/98,3337066,180 WORTMAN AVENUE,052413LL11/98HAZ74578,FACADES,12/20/2017,40.65598259,-73.88614313,305
36428,Manhattan,LL11/98,1086089,83 COLUMBIA STREET,053014LL11/98HAZ75201,FACADES,2/16/2017,40.71827577,-73.98011165,103
36429,Manhattan,LL11/98,1082667,65 COLUMBIA STREET,053014LL11/98HAZ75203,FACADES,3/1/2017,40.71729687,-73.98059026,103
36660,Queens,LL11/98,4037316,42-52 LAYTON STREET,060112LL11/98NRF47020,FACADES,2/16/2017,40.74364347,-73.88302904,404
38168,Manhattan,LL11/98,1015624,212 5 AVENUE,060315FISPHAZ75605,FACADES,2/13/2017,40.74347152,-73.98868277,105
38169,Manhattan,LL11/98,1015624,212 5 AVENUE,060315FISPHAZ85606,FACADES,2/13/2017,40.74347152,-73.98868277,105
38583,Bronx,LL11/98,2093496,1160 BURKE AVENUE,060717FISPHAZ86950,FACADES,10/30/2017,40.87086054,-73.85325259,211
38584,Queens,LL11/98,4432109,62-27 108 STREET,060717FISPHAZ86954,FACADES,10/30/2017,40.73622507,-73.85079664,406
38748,Queens,LL11/98,4078033,108-02 72 AVENUE,060816FISPHAZ76105,FACADES,6/5/2017,40.71944355,-73.84233746,406
38749,Queens,LL11/98,4078033,108-02 72 AVENUE,060816FISPHAZ86106,FACADES,6/5/2017,40.71944355,-73.84233746,406
39639,Manhattan,LL11/98,1033611,2477 BROADWAY,061017FISPHAZ86937,FACADES,12/12/2017,40.79245988,-73.97392572,107
39750,Manhattan,LL11/98,1051436,8 WEST 118 STREET,061312LL11/98HAZ73548,FACADES,11/29/2017,40.80182584,-73.94603845,110
39753,Brooklyn,LL11/98,3338600,834 PARK AVENUE,061313LL11/98HAZ74970,FACADES,10/30/2017,40.69808671,-73.9415555,303
39953,Manhattan,LL11/98,1034144,312 WEST 94 STREET,061416FISPHAZ76112,FACADES,6/5/2017,40.79429148,-73.97551052,107
39954,Manhattan,LL11/98,1034144,312 WEST 94 STREET,061416FISPHAZ86113,FACADES,6/5/2017,40.79429148,-73.97551052,107
40078,Manhattan,LL11/98,1032217,162 WEST 87 STREET,061516FISPHAZ86114,FACADES,3/23/2017,40.78792399,-73.97401015,107
40337,Manhattan,LL11/98,1000830,20 EXCHANGE PLACE,061812LL11/98HAZ73574,FACADES,11/28/2017,40.70546425,-74.00956651,101
40373,Manhattan,LL11/98,1002902,52 VESTRY STREET,061815FISPHAZ75626,FACADES,12/11/2017,40.72300317,-74.01016934,101
40374,Manhattan,LL11/98,1002902,52 VESTRY STREET,061815FISPHAZ85627,FACADES,12/11/2017,40.72300317,-74.01016934,101
40409,Queens,LL11/98,4433391,41-03 10 STREET,061913LL11/98HAZ74675,FACADES,3/22/2017,40.7547899,-73.94473728,401
40410,Queens,LL11/98,4433416,41-06 12 STREET,061913LL11/98HAZ74678,FACADES,3/22/2017,40.75373212,-73.94329828,401
40411,Queens,LL11/98,4433399,41-01 VERNON BOULEVARD,061913LL11/98HAZ74680,FACADES,1/27/2017,40.75612125,-73.94715056,401
40412,Queens,LL11/98,4595565,43385 41 AVE,061913LL11/98HAZ74681,FACADES,5/8/2017,40.75528512,-73.94538355,401
40725,Manhattan,LL11/98,1016109,97 5 AVENUE,062215FISPHAZ75633,FACADES,5/23/2017,40.7378931,-73.99183674,105
40726,Manhattan,LL11/98,1016109,97 5 AVENUE,062215FISPHAZ85634,FACADES,5/23/2017,40.7378931,-73.99183674,105
40824,Manhattan,LL11/98,1059765,1504 AMSTERDAM AVENUE,062217FISPHAZ87017,FACADES,11/9/2017,40.8185639,-73.95284741,109
40864,Bronx,LL11/98,2006021,1054 SOUTHERN BOULEVARD,062315FISPHAZ65653,FACADES,12/12/2017,40.82449746,-73.89152901,202
40865,Brooklyn,LL11/98,3200978,2020 AVENUE V,062315FISPHAZ75649,FACADES,4/17/2017,40.59708699,-73.95022696,315
40866,Bronx,LL11/98,2006021,1054 SOUTHERN BOULEVARD,062315FISPHAZ75654,FACADES,12/12/2017,40.82449746,-73.89152901,202
40867,Brooklyn,LL11/98,3200978,2020 AVENUE V,062315FISPHAZ85650,FACADES,4/17/2017,40.59708699,-73.95022696,315
40868,Bronx,LL11/98,2006021,1054 SOUTHERN BOULEVARD,062315FISPHAZ85655,FACADES,12/12/2017,40.82449746,-73.89152901,202
41079,Queens,LL11/98,4451586,156-03 71 AVENUE,062413LL11/98HAZ74925,FACADES,1/26/2017,40.7306691,-73.81247072,408
41080,Queens,LL11/98,4455422,67-10 PARSONS BOULEVARD,062413LL11/98HAZ74929,FACADES,1/26/2017,40.73419582,-73.81155002,408
41081,Queens,LL11/98,4455432,67-29 KISSENA BOULEVARD,062413LL11/98HAZ74930,FACADES,10/27/2017,40.73399419,-73.81283793,408
41082,Queens,LL11/98,4455417,65-26 PARSONS BOULEVARD,062413LL11/98HAZ74933,FACADES,1/26/2017,40.73557299,-73.81257732,408
41083,Queens,LL11/98,4455416,65-20 PARSONS BOULEVARD,062413LL11/98HAZ74934,FACADES,1/26/2017,40.73627069,-73.81195229,408
41084,Queens,LL11/98,4435282,161-29 FOCH BOULEVARD,062413LL11/98HAZ74940,FACADES,4/18/2017,40.68456158,-73.78359918,412
41085,Brooklyn,LL11/98,3339410,5804 FARRAGUT ROAD,062413LL11/98HAZ74998,FACADES,10/27/2017,40.63558331,-73.92057579,318
41218,Bronx,LL11/98,2092444,20 WEST MOSHOLU PARKWAY SOUT,062507LL11/98HAZ1560,FACADES,1/23/2017,40.87991418,-73.8862036,207
41219,Manhattan,LL11/98,1082667,65 COLUMBIA STREET,062508LL11/98HAZ2039,FACADES,3/2/2017,40.71729687,-73.98059026,103
41224,Manhattan,LL11/98,1083428,64 ESSEX STREET,062509LL11/98HAZ2526,FACADES,12/20/2017,40.71736891,-73.98834045,103
41271,Manhattan,LL11/98,1039577,926 2 AVENUE,062515FISPHAZ75637,FACADES,11/27/2017,40.75428859,-73.96856742,106
41272,Manhattan,LL11/98,1001356,39 PARK ROW,062515FISPHAZ75639,FACADES,8/29/2017,40.71166505,-74.00620004,101
41273,Manhattan,LL11/98,1039577,926 2 AVENUE,062515FISPHAZ85638,FACADES,11/27/2017,40.75428859,-73.96856742,106
41274,Manhattan,LL11/98,1001356,39 PARK ROW,062515FISPHAZ85640,FACADES,8/29/2017,40.71166505,-74.00620004,101
41332,Manhattan,LL11/98,1034496,38 WEST 48 STREET,062615FISP85644,FACADES,4/17/2017,40.75784078,-73.98003513,105
41333,Manhattan,LL11/98,1034496,38 WEST 48 STREET,062615FISPHAZ75643,FACADES,4/17/2017,40.75784078,-73.98003513,105
41386,Bronx,LL11/98,2091226,285 EAST 156 STREET,062708LL11/98HAZ2056,FACADES,7/27/2017,40.82206578,-73.91890931,201
41388,Bronx,LL11/98,2092636,2280 RANDALL AVENUE,062713LL11/98HAZ74841,FACADES,10/27/2017,40.81876138,-73.84598998,209
41538,Bronx,LL11/98,2093490,1130 BURKE AVENUE,062717FISPHAZ87016,FACADES,10/30/2017,40.87075192,-73.85400791,211
41620,Manhattan,LL11/98,1079308,100 WEST 97 STREET,062816FISPHAZ76123,FACADES,10/30/2017,40.79340193,-73.96768693,107
41825,Manhattan,LL11/98,1014948,153 WEST 23 STREET,062909LL11/98HAZ2536,FACADES,1/23/2017,40.74395069,-73.99459692,104
41846,Queens,LL11/98,4050999,102-40 62 AVENUE,062915FISPHAZ75645,FACADES,10/31/2017,40.73589484,-73.85450785,406
41847,Manhattan,LL11/98,1009504,422 6 AVENUE,062915FISPHAZ75698,FACADES,8/28/2017,40.73426151,-73.99868471,102
41848,Bronx,LL11/98,2009873,1714 CROTONA PARK EAST,062915FISPHAZ75702,FACADES,11/29/2017,40.83765616,-73.88887807,203
41849,Manhattan,LL11/98,1041173,61 EAST 66 STREET,062915FISPHAZ75732,FACADES,5/5/2017,40.76773953,-73.96714049,108
41850,Manhattan,LL11/98,1019948,207 EAST 30 STREET,062915FISPHAZ75736,FACADES,5/3/2017,40.74310924,-73.97920088,106
41851,Manhattan,LL11/98,1050870,509 EAST 80 STREET,062915FISPHAZ75740,FACADES,6/1/2017,40.77182544,-73.94883352,108
41852,Queens,LL11/98,4439002,43220 BEACH 68 STREET,062915FISPHAZ75753,FACADES,5/5/2017,40.59363001,-73.79684343,414
41853,Queens,LL11/98,4050999,102-40 62 AVENUE,062915FISPHAZ85646,FACADES,10/31/2017,40.73589484,-73.85450785,406
41854,Manhattan,LL11/98,1009504,422 6 AVENUE,062915FISPHAZ85699,FACADES,8/28/2017,40.73426151,-73.99868471,102
41855,Bronx,LL11/98,2009873,1714 CROTONA PARK EAST,062915FISPHAZ85703,FACADES,11/29/2017,40.83765616,-73.88887807,203
41856,Manhattan,LL11/98,1041173,61 EAST 66 STREET,062915FISPHAZ85733,FACADES,5/5/2017,40.76773953,-73.96714049,108
41857,Manhattan,LL11/98,1019948,207 EAST 30 STREET,062915FISPHAZ85737,FACADES,5/3/2017,40.74310924,-73.97920088,106
41858,Manhattan,LL11/98,1050870,509 EAST 80 STREET,062915FISPHAZ85741,FACADES,6/1/2017,40.77182544,-73.94883352,108
41859,Queens,LL11/98,4439002,43220 BEACH 68 STREET,062915FISPHAZ85752,FACADES,5/5/2017,40.59363001,-73.79684343,414
42040,Manhattan,LL11/98,1019972,248 EAST 31 STREET,063015FISPHAZ65724,FACADES,4/17/2017,40.74291193,-73.97788832,106
42041,Manhattan,LL11/98,1019972,248 EAST 31 STREET,063015FISPHAZ75725,FACADES,4/17/2017,40.74291193,-73.97788832,106
42042,Manhattan,LL11/98,1015141,143 WEST 29 STREET,063015FISPHAZ75727,FACADES,7/20/2017,40.7475383,-73.99160158,105
42043,Manhattan,LL11/98,1049819,334 EAST 81 STREET,063015FISPHAZ75729,FACADES,11/28/2017,40.77397788,-73.95296428,108
42044,Bronx,LL11/98,2098786,1185 ANDERSON AVENUE,063015FISPHAZ75758,FACADES,10/13/2017,40.83667021,-73.92413075,204
42045,Bronx,LL11/98,2003171,1175 ANDERSON AVENUE,063015FISPHAZ75760,FACADES,10/13/2017,40.83625614,-73.92444894,204
42046,Bronx,LL11/98,2098785,1177 ANDERSON AVENUE,063015FISPHAZ75762,FACADES,10/13/2017,40.83646496,-73.9242882,204
42047,Queens,LL11/98,4056461,79-00 QUEENS BLVD,063015FISPHAZ75766,FACADES,8/28/2017,40.73773653,-73.88465172,404
42048,Queens,LL11/98,4079940,111-55 77 AVENUE,063015FISPHAZ75781,FACADES,7/13/2017,40.71594901,-73.83419635,406
42049,Manhattan,LL11/98,1019972,248 EAST 31 STREET,063015FISPHAZ85726,FACADES,4/17/2017,40.74291193,-73.97788832,106
42050,Manhattan,LL11/98,1015141,143 WEST 29 STREET,063015FISPHAZ85728,FACADES,7/20/2017,40.7475383,-73.99160158,105
42051,Manhattan,LL11/98,1049819,334 EAST 81 STREET,063015FISPHAZ85730,FACADES,11/28/2017,40.77397788,-73.95296428,108
42052,Bronx,LL11/98,2098786,1185 ANDERSON AVENUE,063015FISPHAZ85759,FACADES,10/13/2017,40.83667021,-73.92413075,204
42053,Bronx,LL11/98,2003171,1175 ANDERSON AVENUE,063015FISPHAZ85761,FACADES,10/13/2017,40.83625614,-73.92444894,204
42054,Bronx,LL11/98,2098785,1177 ANDERSON AVENUE,063015FISPHAZ85763,FACADES,10/13/2017,40.83646496,-73.9242882,204
42055,Queens,LL11/98,4056461,79-00 QUEENS BLVD,063015FISPHAZ85767,FACADES,8/28/2017,40.73773653,-73.88465172,404
42056,Queens,LL11/98,4079940,111-55 77 AVENUE,063015FISPHAZ85782,FACADES,7/13/2017,40.71594901,-73.83419635,406
42100,Manhattan,LL11/98,1041786,951 5 AVENUE,063016FISPHAZ76126,FACADES,8/28/2017,40.77511786,-73.96471692,108
42101,Manhattan,LL11/98,1015868,43 WEST 34 STREET,063016FISPHAZ86125,FACADES,8/28/2017,40.74983089,-73.98684481,105
42102,Manhattan,LL11/98,1041786,951 5 AVENUE,063016FISPHAZ86127,FACADES,8/28/2017,40.77511786,-73.96471692,108
42293,Bronx,LL11/98,2096712,2138 EAST TREMONT AVENUE,070187LL10/80001541NRF,FACADES,6/7/2017,40.84183466,-73.85652774,209
42294,Bronx,LL11/98,2091860,2395 PALISADE AVENUE,070187LL10/80001659N,FACADES,10/19/2017,40.87926989,-73.92106646,208
42295,Brooklyn,LL11/98,3205620,3020 AVENUE Y,070187LL10/80NRF01900,FACADES,4/18/2017,40.58977703,-73.93631584,315
42296,Bronx,LL11/98,2816533,1876 VALENTINE AVENUE,070192LL10/801371NRF,FACADES,10/10/2017,40.84894903,-73.90085841,205
42326,Brooklyn,LL11/98,3338435,140 MOORE STREET,070213LL11/98HAZ74834,FACADES,1/27/2017,40.703537,-73.9396571,301
42327,Brooklyn,LL11/98,3338438,869 FLUSHING AVENUE,070213LL11/98HAZ74837,FACADES,10/27/2017,40.70228847,-73.93750465,301
42328,Brooklyn,LL11/98,3338439,849 FLUSHING AVENUE,070213LL11/98HAZ74838,FACADES,1/26/2017,40.70182831,-73.93838616,301
42329,Brooklyn,LL11/98,3338432,811 FLUSHING AVENUE,070213LL11/98HAZ74839,FACADES,8/28/2017,40.70165511,-73.94016997,301
42346,Manhattan,LL11/98,1016301,16 EAST 23 STREET,070214LL11/98HAZ75274,FACADES,11/15/2017,40.74071058,-73.98830447,105
42370,Staten Island,LL11/98,5108862,45 WARREN STREET,070313LL11/98HAZ74306,FACADES,5/30/2017,40.62162293,-74.08173125,501
42371,Staten Island,LL11/98,5157567,181 GORDON STREET,070313LL11/98HAZ74307,FACADES,8/31/2017,40.62345274,-74.08181516,501
42380,Staten Island,LL11/98,5157567,181 GORDON STREET,070316FISPHAZ74307,FACADES,8/31/2017,40.62345274,-74.08181516,501
42710,Bronx,LL11/98,2090454,1441 BOSTON ROAD,070715FISPNRF47072,FACADES,3/3/2017,40.83396021,-73.89604706,203
42784,Bronx,LL11/98,2093498,1210 BURKE AVENUE,070717FISPHAZ87018,FACADES,10/30/2017,40.8708416,-73.85233038,211
42804,Manhattan,LL11/98,1054420,120 EAST 123 STREET,070813LL11/98HAZ74292,FACADES,5/30/2017,40.80316128,-73.93904206,111
42938,Manhattan,LL11/98,1078041,110 COLUMBIA STREET,070914LL11/98HAZ75290,FACADES,10/27/2017,40.71881523,-73.97882815,103
42939,Manhattan,LL11/98,1078040,80 COLUMBIA STREET,070914LL11/98HAZ75291,FACADES,10/27/2017,40.71810867,-73.97916925,103
42940,Manhattan,LL11/98,1078037,296 DELANCEY STREET,070914LL11/98HAZ75292,FACADES,10/27/2017,40.71670872,-73.97861956,103
43001,Manhattan,LL11/98,1016880,51 MADISON AVENUE,071012LL11/98HAZ73582,FACADES,5/2/2017,40.74274618,-73.98558223,105
43348,Queens,LL11/98,4432081,65-30 108 STREET,071315FISPHAZ75802,FACADES,2/16/2017,40.73066318,-73.84880932,406
43349,Queens,LL11/98,4432082,65-40 108 STREET,071315FISPHAZ75804,FACADES,1/23/2017,40.73032808,-73.84871503,406
43350,Queens,LL11/98,4051768,65-35 108 STREET,071315FISPHAZ75806,FACADES,2/16/2017,40.7307286,-73.84799484,406
43351,Queens,LL11/98,4432081,65-30 108 STREET,071315FISPHAZ85803,FACADES,2/16/2017,40.73066318,-73.84880932,406
43352,Queens,LL11/98,4432082,65-40 108 STREET,071315FISPHAZ85805,FACADES,1/23/2017,40.73032808,-73.84871503,406
43353,Queens,LL11/98,4051768,65-35 108 STREET,071315FISPHAZ85807,FACADES,2/16/2017,40.7307286,-73.84799484,406
43834,Queens,LL11/98,4430996,31-05 49 STREET,071813LL11/98HAZ74282,FACADES,10/27/2017,40.75744377,-73.90963834,401
43835,Queens,LL11/98,4431005,50-14 31 AVENUE,071813LL11/98HAZ74284,FACADES,10/27/2017,40.7565164,-73.90955809,401
43943,Manhattan,LL11/98,1077511,38 RUTGERS STREET,071913LL11/98HAZ74310,FACADES,1/26/2017,40.71226339,-73.99021211,103
44529,Manhattan,LL11/98,1060101,2441 A C POWELL BOULEVARD,072413LL11/98HAZ74312,FACADES,1/26/2017,40.81974212,-73.93995229,110
44536,Bronx,LL11/98,2091226,285 EAST 156 STREET,072414LL11/98HAZ75321,FACADES,7/27/2017,40.82206578,-73.91890931,201
44594,Bronx,LL11/98,2093500,1236 BURKE AVENUE,072417FISPHAZ87019,FACADES,11/9/2017,40.87082521,-73.85142078,211
44688,Manhattan,LL11/98,1027008,533 WEST 48 STREET,072516FISPHAZ76135,FACADES,11/30/2017,40.76432049,-73.99427039,104
44689,Manhattan,LL11/98,1027008,533 WEST 48 STREET,072516FISPHAZ86136,FACADES,11/30/2017,40.76432049,-73.99427039,104
45234,Brooklyn,LL11/98,3340264,2651 WEST 36 STREET,072916FISPHAZ76313,FACADES,4/18/2017,40.58022216,-74.00247648,313
45235,Brooklyn,LL11/98,3340264,2651 WEST 36 STREET,072916FISPHAZ86314,FACADES,4/18/2017,40.58022216,-74.00247648,313
45258,Brooklyn,LL11/98,3327750,1212 LORING AVENUE,073014LL11/98HAZ75328,FACADES,4/18/2017,40.66675379,-73.8664589,305
45474,Queens,LL11/98,4166895,222-89 BRADDOCK AVENUE,080117FISPNRF747089,FACADES,11/9/2017,40.72865261,-73.73559966,413
45700,Manhattan,LL11/98,1087741,120 BRADHURST AVENUE,080316FISPHAZ86321,FACADES,4/7/2017,40.82524845,-73.94097528,110
45841,Manhattan,LL11/98,1077414,7 ST JAMES PLACE,080416FISPHAZ86143,FACADES,10/27/2017,40.71010827,-73.99921547,103
45842,Manhattan,LL11/98,1077418,15 ST JAMES PLACE,080416FISPHAZ86145,FACADES,11/9/2017,40.71074532,-73.99866317,103
45843,Manhattan,LL11/98,1077417,23 ST JAMES PLACE,080416FISPHAZ86147,FACADES,8/31/2017,40.71130799,-73.99961019,103
45938,Queens,LL11/98,4436448,439 BEACH 54 STREET,080516FISPHAZ86204,FACADES,6/2/2017,40.59635964,-73.7858743,414
45939,Manhattan,LL11/98,1079195,1810 LEXINGTON AVENUE,080516FISPHAZ86207,FACADES,12/14/2017,40.79678572,-73.9433696,111
45940,Manhattan,LL11/98,1082330,1840 LEXINGTON AVENUE,080516FISPHAZ86208,FACADES,11/9/2017,40.79748761,-73.94285251,111
45941,Manhattan,LL11/98,1082337,163 EAST 112 STREET,080516FISPHAZ86209,FACADES,4/18/2017,40.79604734,-73.94263423,111
45942,Manhattan,LL11/98,1082333,2060 3 AVENUE,080516FISPHAZ86210,FACADES,1/27/2017,40.79606444,-73.9419381,111
45943,Manhattan,LL11/98,1087213,1829 LEXINGTON AVENUE,080516FISPHAZ86211,FACADES,1/27/2017,40.79679921,-73.94244986,111
45955,Manhattan,LL11/98,1059817,440 RIVERSIDE DRIVE,080612LL11/98HAZ73688,FACADES,6/9/2017,40.80890051,-73.9652412,109
45979,Manhattan,LL11/98,1019908,210 EAST 29 STREET,080615FISPHAZ75830,FACADES,10/31/2017,40.74209721,-73.9797432,106
45980,Manhattan,LL11/98,1019908,210 EAST 29 STREET,080615FISPHAZ85831,FACADES,10/31/2017,40.74209721,-73.9797432,106
46004,Brooklyn,LL11/98,3327758,1237 STANLEY AVENUE,080713LL11/98HAZ74434,FACADES,4/26/2017,40.66640914,-73.86425537,305
46005,Brooklyn,LL11/98,3327752,1167 STANLEY AVENUE,080713LL11/98HAZ74435,FACADES,1/30/2017,40.66610027,-73.86639962,305
46006,Brooklyn,LL11/98,3327751,1165 STANLEY AVENUE,080713LL11/98HAZ74436,FACADES,1/30/2017,40.66601938,-73.86695577,305
46007,Brooklyn,LL11/98,3327756,1306 LORING AVENUE,080713LL11/98HAZ74437,FACADES,4/26/2017,40.66715131,-73.86352065,305
46008,Brooklyn,LL11/98,3327755,1260 LORING AVENUE,080713LL11/98HAZ74438,FACADES,4/18/2017,40.66697545,-73.86473874,305
46009,Brooklyn,LL11/98,3327760,1258 LORING AVENUE,080713LL11/98HAZ74439,FACADES,4/18/2017,40.66689625,-73.86529594,305
46010,Brooklyn,LL11/98,3327749,1210 LORING AVENUE,080713LL11/98HAZ74440,FACADES,1/30/2017,40.6666413,-73.86721511,305
46011,Brooklyn,LL11/98,3326999,1307 LORING AVENUE,080713LL11/98HAZ74441,FACADES,1/30/2017,40.66813344,-73.86307955,305
46012,Brooklyn,LL11/98,3326998,1305 LORING AVENUE,080713LL11/98HAZ74452,FACADES,1/30/2017,40.66802169,-73.86383765,305
46013,Brooklyn,LL11/98,3326997,1259 LORING AVENUE,080713LL11/98HAZ74453,FACADES,1/30/2017,40.66787715,-73.86485908,305
46014,Brooklyn,LL11/98,3326209,1257 LORING AVENUE,080713LL11/98HAZ74454,FACADES,1/30/2017,40.667766,-73.86561276,305
46015,Brooklyn,LL11/98,3324205,1211 LORING AVENUE,080713LL11/98HAZ74455,FACADES,1/30/2017,40.66761713,-73.86666982,305
46016,Brooklyn,LL11/98,3324206,1209 LORING AVENUE,080713LL11/98HAZ74456,FACADES,1/27/2017,40.667507,-73.86742745,305
46017,Brooklyn,LL11/98,3324207,2630 LINDEN BOULEVARD,080713LL11/98HAZ74457,FACADES,1/27/2017,40.66826742,-73.86693699,305
46018,Brooklyn,LL11/98,3324208,2628 LINDEN BOULEVARD,080713LL11/98HAZ74458,FACADES,1/27/2017,40.66818732,-73.86749231,305
46019,Brooklyn,LL11/98,3326208,2726 LINDEN BOULEVARD,080713LL11/98HAZ74459,FACADES,1/30/2017,40.66877996,-73.863347,305
46020,Brooklyn,LL11/98,3326996,2724 LINDEN BOULEVARD,080713LL11/98HAZ74460,FACADES,1/30/2017,40.66870143,-73.86390521,305
46021,Brooklyn,LL11/98,3326993,2676 LINDEN BOULEVARD,080713LL11/98HAZ74461,FACADES,1/27/2017,40.66844812,-73.86568076,305
46202,Staten Island,LL11/98,5095362,49 HYLAN BOULEVARD,080816FISPNRF47088,FACADES,5/16/2017,40.61503681,-74.06487284,501
46230,Bronx,LL11/98,2093494,3055 BOUCK AVENUE,080817FISPHAZ87021,FACADES,11/9/2017,40.87024642,-73.85033742,211
46231,Bronx,LL11/98,2093503,3010 YATES AVENUE,080817FISPHAZ87022,FACADES,11/9/2017,40.87008691,-73.85398883,211
46232,Bronx,LL11/98,2093492,1245 ADEE AVENUE,080817FISPHAZ87023,FACADES,11/13/2017,40.86970605,-73.85112621,211
46248,Manhattan,LL11/98,1054411,115 EAST 122 STREET,080913LL11/98HAZ74464,FACADES,4/26/2017,40.8028746,-73.93938659,111
46249,Brooklyn,LL11/98,3324731,20 LEWIS AVENUE,080913LL11/98HAZ74467,FACADES,10/30/2017,40.69704068,-73.93840882,303
46622,Manhattan,LL11/98,1084130,530 WEST 133 ST,081314LL11/98HAZ75355,FACADES,1/26/2017,40.81775053,-73.95469922,109
46940,Queens,LL11/98,4446826,149-30 88 STREET,081612LL11/98HAZ73671,FACADES,3/16/2017,40.66906516,-73.8475486,410
46989,Manhattan,LL11/98,1078411,418 WEST 17 STREET,081616FISPHAZ86170,FACADES,11/13/2017,40.7429555,-74.00509454,104
46990,Manhattan,LL11/98,1078408,401 WEST 16 STREET,081616FISPHAZ86175,FACADES,11/13/2017,40.74258181,-74.00471234,104
46991,Brooklyn,LL11/98,3341979,73 SOUTH 10 STREET,081616FISPHAZ86177,FACADES,10/27/2017,40.70854596,-73.96608228,301
46992,Manhattan,LL11/98,1056503,241 WEST 101 STREET,081616FISPHAZ86184,FACADES,12/14/2017,40.79824601,-73.9698697,107
46993,Manhattan,LL11/98,1012576,401 WEST 19 STREET,081616FISPHAZ86185,FACADES,12/14/2017,40.74445324,-74.00370073,104
46994,Manhattan,LL11/98,1078041,110 COLUMBIA STREET,081616FISPHAZ86187,FACADES,10/27/2017,40.71881523,-73.97882815,103
46995,Manhattan,LL11/98,1078037,296 DELANCEY STREET,081616FISPHAZ86188,FACADES,10/27/2017,40.71670872,-73.97861956,103
47020,Manhattan,LL11/98,1051436,2 WEST 118 STREET,081617FISPHAZ86979,FACADES,11/29/2017,40.80182584,-73.94603845,110
47031,Manhattan,LL11/98,1048312,140 EAST 92 STREET,081712LL11/98HAZ73679,FACADES,1/23/2017,40.7832128,-73.9531149,108
47339,Manhattan,LL11/98,1032611,108 WEST 96 STREET,082014LL11/98HAZ75366,FACADES,7/17/2017,40.79299498,-73.96850847,107
47371,Brooklyn,LL11/98,3836962,708 7TH WALK,082108LL11/98HAZ2213,FACADES,7/27/2017,40.67570284,-73.92122412,316
47377,Manhattan,LL11/98,1038566,226 EAST 54 STREET,082112LL11/98HAZ73696,FACADES,6/30/2017,40.75762916,-73.96785445,106
47605,Brooklyn,LL11/98,3334990,83 TAYLOR STREET,082316FISPHAZ86226,FACADES,12/14/2017,40.70511971,-73.9648939,301
47606,Brooklyn,LL11/98,3334989,121 TAYLOR STREET,082316FISPHAZ86228,FACADES,12/18/2017,40.70594834,-73.96361604,301
47607,Brooklyn,LL11/98,3059905,119 WILSON STREET,082316FISPHAZ86229,FACADES,12/18/2017,40.7053308,-73.96317091,301
47608,Bronx,LL11/98,2093742,1880 SCHIEFFELIN AVENUE,082316FISPHAZ86235,FACADES,10/26/2017,40.88345339,-73.84470774,212
47609,Bronx,LL11/98,2093746,1930 SCHIEFFELIN AVENUE,082316FISPHAZ86236,FACADES,4/26/2017,40.88438844,-73.84340075,212
47610,Bronx,LL11/98,2093748,1861 SCHIEFFELIN PLACE,082316FISPHAZ86237,FACADES,10/26/2017,40.8831258,-73.84427278,212
47611,Bronx,LL11/98,2093747,1851 SCHIEFFELIN PLACE,082316FISPHAZ86238,FACADES,10/26/2017,40.88260837,-73.84446839,212
47612,Bronx,LL11/98,2093751,1891 SCHIEFFELIN PLACE,082316FISPHAZ86239,FACADES,10/26/2017,40.88392264,-73.84263411,212
47684,Queens,LL11/98,4039508,46-11 88 STREET,082415FISPHAZ85841,FACADES,3/2/2017,40.74157625,-73.87719427,404
47925,Manhattan,LL11/98,1046972,1239 MADISON AVENUE,082613LL11/98HAZ74332,FACADES,1/23/2017,40.78294649,-73.95663388,108
48165,Queens,LL11/98,4297683,833 CENTRAL AVENUE,082916FISPHAZ86224,FACADES,2/16/2017,40.60966058,-73.74466941,414
49356,Brooklyn,LL11/98,3322042,3020 SURF AVENUE,090313LL11/98HAZ74396,FACADES,4/25/2017,40.57226661,-73.99635063,313
49357,Brooklyn,LL11/98,3322044,3030 SURF AVENUE,090313LL11/98HAZ74397,FACADES,4/26/2017,40.57212195,-73.99697438,313
49358,Brooklyn,LL11/98,3322043,3025 WEST 32 STREET,090313LL11/98HAZ74398,FACADES,4/25/2017,40.57202486,-73.99753851,313
49359,Brooklyn,LL11/98,3322045,3002 SURF AVENUE,090313LL11/98HAZ74399,FACADES,4/25/2017,40.57211883,-73.99569207,313
49360,Staten Island,LL11/98,5109120,139 BRABANT STREET,090313LL11/98HAZ74426,FACADES,10/27/2017,40.63208479,-74.16262244,501
49453,Brooklyn,LL11/98,3328133,393 POWELL STREET,090513LL11/98HAZ74517,FACADES,4/25/2017,40.66478363,-73.9021293,316
49930,Brooklyn,LL11/98,3324021,185 WORTMAN AVE,090916FISPHAZ76301,FACADES,12/20/2017,40.65682749,-73.88642977,305
49931,Brooklyn,LL11/98,3337062,215 COZINE AVENUE,090916FISPHAZ76304,FACADES,12/28/2017,40.65616786,-73.88454553,305
49932,Brooklyn,LL11/98,3324016,912 VAN SICLEN AVENUE,090916FISPHAZ76309,FACADES,12/20/2017,40.65773811,-73.88431258,305
49933,Brooklyn,LL11/98,3324017,225 WORTMAN AVENUE,090916FISPHAZ86274,FACADES,8/31/2017,40.65738733,-73.88511272,305
49934,Brooklyn,LL11/98,3324021,185 WORTMAN AVE,090916FISPHAZ86275,FACADES,12/20/2017,40.65682749,-73.88642977,305
49935,Brooklyn,LL11/98,3337066,180 WORTMAN AVENUE,090916FISPHAZ86277,FACADES,12/20/2017,40.65598259,-73.88614313,305
49936,Brooklyn,LL11/98,3337067,190 WORTMAN AVENUE,090916FISPHAZ86278,FACADES,12/28/2017,40.65620176,-73.88563039,305
49937,Brooklyn,LL11/98,3337062,215 COZINE AVENUE,090916FISPHAZ86283,FACADES,12/28/2017,40.65616786,-73.88454553,305
49938,Brooklyn,LL11/98,3324018,640 STANLEY AVENUE,090916FISPHAZ86286,FACADES,12/28/2017,40.65856165,-73.88458914,305
49939,Brooklyn,LL11/98,3324022,215 WORTMAN AVENUE,090916FISPHAZ86289,FACADES,11/13/2017,40.65716455,-73.88562613,305
49940,Brooklyn,LL11/98,3324019,570 STANLEY AVENUE,090916FISPHAZ86293,FACADES,12/14/2017,40.65742625,-73.88721945,305
49941,Brooklyn,LL11/98,3324016,912 VAN SICLEN AVENUE,090916FISPHAZ86295,FACADES,12/20/2017,40.65773811,-73.88431258,305
49950,Brooklyn,LL11/98,3337299,2218 BATCHELDER STREET,091008LL11/98HAZ52255,FACADES,8/31/2017,40.59814309,-73.93891787,315
49951,Brooklyn,LL11/98,3337299,2218 BATCHELDER STREET,091008LL11/98HAZ62254,FACADES,8/31/2017,40.59814309,-73.93891787,315
49954,Manhattan,LL11/98,1002434,50 BAYARD STREET,091013LL11/98HAZ74385,FACADES,1/18/2017,40.71544876,-73.99715895,103
49996,Brooklyn,LL11/98,3337303,3547 NOSTRAND AVENUE,091108LL11/98HAZ52268,FACADES,4/27/2017,40.59747629,-73.94048004,315
49997,Brooklyn,LL11/98,3337295,2953 AVENUE W,091108LL11/98HAZ52270,FACADES,4/26/2017,40.59662532,-73.93971983,315
49998,Brooklyn,LL11/98,3337302,2256 BATCHELDER STREET,091108LL11/98HAZ52274,FACADES,1/27/2017,40.59716689,-73.93873266,315
49999,Brooklyn,LL11/98,3337303,3547 NOSTRAND AVENUE,091108LL11/98HAZ62267,FACADES,4/27/2017,40.59747629,-73.94048004,315
50000,Brooklyn,LL11/98,3337295,2953 AVENUE W,091108LL11/98HAZ62269,FACADES,4/26/2017,40.59662532,-73.93971983,315
50001,Brooklyn,LL11/98,3337302,2256 BATCHELDER STREET,091108LL11/98HAZ62273,FACADES,1/27/2017,40.59716689,-73.93873266,315
52902,Brooklyn,LL11/98,3341979,73 SOUTH 10 STREET,091613LL11/98HAZ74690,FACADES,10/27/2017,40.70854596,-73.96608228,301
53499,Manhattan,LL11/98,1002740,260 WEST BROADWAY,091713LL11/98HAZ74507,FACADES,3/6/2017,40.72058368,-74.00571428,101
53552,Brooklyn,LL11/98,3337299,2218 BATCHELDER STREET,091813LL11/98HAZ74703,FACADES,8/31/2017,40.59814309,-73.93891787,315
53553,Brooklyn,LL11/98,3337300,2236 BATCHELDER STREET,091813LL11/98HAZ74704,FACADES,10/27/2017,40.59760087,-73.93930239,315
53554,Brooklyn,LL11/98,3337303,3547 NOSTRAND AVENUE,091813LL11/98HAZ74705,FACADES,4/27/2017,40.59747629,-73.94048004,315
53555,Brooklyn,LL11/98,3337289,3525 NOSTRAND AVENUE,091813LL11/98HAZ74706,FACADES,2/13/2017,40.59790931,-73.94104988,315
53556,Brooklyn,LL11/98,3337295,2953 AVENUE W,091813LL11/98HAZ74708,FACADES,4/26/2017,40.59662532,-73.93971983,315
53557,Brooklyn,LL11/98,3337302,2256 BATCHELDER STREET,091813LL11/98HAZ74710,FACADES,1/27/2017,40.59716689,-73.93873266,315
53558,Brooklyn,LL11/98,3337294,2935 AVENUE W,091813LL11/98HAZ74711,FACADES,8/31/2017,40.59627052,-73.94042663,315
53567,Bronx,LL11/98,2094530,1650 SELWYN AVENUE,091814LL11/98HAZ75391,FACADES,6/12/2017,40.84360389,-73.91010768,204
53665,Manhattan,LL11/98,1051485,1421 MADISON AVENUE,091914LL11/98HAZ75396,FACADES,9/22/2017,40.78847927,-73.95211239,111
53666,Manhattan,LL11/98,1085820,19 EAST 98 STREET,091914LL11/98HAZ75397,FACADES,10/19/2017,40.78887187,-73.95346682,111
54063,Manhattan,LL11/98,1001031,2 RECTOR STREET,092313LL11/98HAZ74429,FACADES,6/5/2017,40.70809173,-74.01316443,101
54218,Brooklyn,LL11/98,3324972,997 DE KALB AVENUE,092513LL11/98HAZ74632,FACADES,7/27/2017,40.69360848,-73.93520596,303
54219,Brooklyn,LL11/98,3324969,927 DEKALB AVENUE,092513LL11/98HAZ74634,FACADES,7/27/2017,40.69321885,-73.93858672,303
54220,Brooklyn,LL11/98,3324968,153 MARCUS GARVEY BOULEVARD,092513LL11/98HAZ74635,FACADES,4/25/2017,40.6931064,-73.93957093,303
54221,Brooklyn,LL11/98,3043216,128 LEWIS AVENUE,092513LL11/98HAZ74636,FACADES,4/25/2017,40.69259944,-73.93741728,303
54400,Brooklyn,LL11/98,3071359,330 BUSHWICK AVENUE,092713LL11/98HAZ74892,FACADES,11/9/2017,40.70512372,-73.93965694,301
54401,Brooklyn,LL11/98,3071362,310 BUSHWICK AVENUE,092713LL11/98HAZ74901,FACADES,12/15/2017,40.70557202,-73.9403324,301
54402,Brooklyn,LL11/98,3071361,120 HUMBOLDT STREET,092713LL11/98HAZ74902,FACADES,11/9/2017,40.70527359,-73.94028305,301
54403,Brooklyn,LL11/98,3071360,155 SEIGEL STREET,092713LL11/98HAZ74903,FACADES,11/9/2017,40.70486305,-73.94021514,301
54404,Brooklyn,LL11/98,3071357,186 BOERUM STREET,092713LL11/98HAZ74904,FACADES,12/15/2017,40.70574669,-73.94096379,301
54405,Manhattan,LL11/98,1078411,418 WEST 17 STREET,092713LL11/98HAZ75082,FACADES,11/13/2017,40.7429555,-74.00509454,104
54406,Brooklyn,LL11/98,3071363,102 HUMBOLDT STREET,092713LL11/98HAZ75154,FACADES,12/14/2017,40.70498412,-73.94083898,301
54409,Manhattan,LL11/98,1077417,23 ST JAMES PLACE,092715FISPHAZ76148,FACADES,8/31/2017,40.71130799,-73.99961019,103
54912,Queens,LL11/98,4435245,109-10 160 STREET,100108LL11/98HAZ2303,FACADES,7/27/2017,40.69369225,-73.79211074,412
56239,Brooklyn,LL11/98,3043216,128 LEWIS AVENUE,100116FISPHAZ86914,FACADES,4/25/2017,40.69259944,-73.93741728,303
56240,Brooklyn,LL11/98,3324968,153 MARCUS GARVEY BOULEVARD,100116FISPHAZ86915,FACADES,4/25/2017,40.6931064,-73.93957093,303
56617,Manhattan,LL11/98,1028944,110 WEST 69 STREET,100609LL11/98HAZ2607,FACADES,1/23/2017,40.77554527,-73.98087224,107
56757,Queens,LL11/98,4030734,41-31 51 STREET,100715FISPHAZ85848,FACADES,5/8/2017,40.7451294,-73.9130908,402
57099,Brooklyn,LL11/98,3336056,266 WYCKOFF STREET,100913LL11/98HAZ74671,FACADES,1/30/2017,40.6829209,-73.98346415,306
57100,Brooklyn,LL11/98,3336054,120 THIRD AVENUE,100913LL11/98HAZ74673,FACADES,1/30/2017,40.68213238,-73.98344768,306
57622,Queens,LL11/98,4445338,61-20 GRAND CENTRAL PARKWAY,101515FISPHAZ75852,FACADES,6/5/2017,40.73788812,-73.84718254,406
57623,Queens,LL11/98,4445338,61-20 GRAND CENTRAL PARKWAY,101515FISPHAZ885853,FACADES,6/5/2017,40.73788812,-73.84718254,406
57824,Queens,LL11/98,4303321,71-15 BEACH CHANNEL DRIVE,101813LL11/98HAZ74962,FACADES,4/25/2017,40.59107503,-73.80007706,414
58050,Bronx,LL11/98,2013578,2380 RYER AVENUE,102009LL11/98HAZ2609,FACADES,2/6/2017,40.85934062,-73.89784992,205
58264,Manhattan,LL11/98,1012047,137 BANK STREET,102116FISPHAZ86312,FACADES,6/30/2017,40.73655989,-74.00901108,102
58387,Brooklyn,LL11/98,3043216,128 LEWIS AVENUE,102408LL11/98HAZ2333,FACADES,4/25/2017,40.69259944,-73.93741728,303
58401,Queens,LL11/98,4002585,45-54 41 STREET,102413LL11/98HAZ74573,FACADES,1/23/2017,40.74195747,-73.92394915,402
58402,Manhattan,LL11/98,1081086,310 EAST 115 STREET,102413LL11/98HAZ74620,FACADES,1/26/2017,40.79579792,-73.93818227,111
58403,Manhattan,LL11/98,1081088,320 EAST 115 STREET,102413LL11/98HAZ74621,FACADES,1/26/2017,40.79558875,-73.93761185,111
58404,Manhattan,LL11/98,1080707,228 EAST 115 STREET,102413LL11/98HAZ74623,FACADES,1/26/2017,40.79633922,-73.93938897,111
58405,Manhattan,LL11/98,1080708,2227 2 AVENUE,102413LL11/98HAZ74624,FACADES,1/26/2017,40.79611917,-73.93886251,111
58406,Manhattan,LL11/98,1080706,218 EAST 115 STREET,102413LL11/98HAZ74625,FACADES,1/27/2017,40.79655923,-73.93991489,111
58407,Manhattan,LL11/98,1080704,2065 3 AVENUE,102413LL11/98HAZ74626,FACADES,1/26/2017,40.79605955,-73.94061406,111
59685,Manhattan,LL11/98,1059765,1504 AMSTERDAM AVENUE,110113LL11/98HAZ74643,FACADES,11/9/2017,40.8185639,-73.95284741,109
60118,Manhattan,LL11/98,1802128,632 EAST 13 STREET,110705LL11/98NRF51859,FACADES,7/17/2017,40.72782587,-73.97682969,103
60762,Brooklyn,LL11/98,3324972,997 DEKALB AVENUE,111408LL11/98HAZ2343,FACADES,7/27/2017,40.69360848,-73.93520596,303
60779,Brooklyn,LL11/98,3179390,920 EAST 17 STREET,111413LL11/98HAZ74645,FACADES,3/28/2017,40.62869281,-73.96063585,314
65075,Brooklyn,LL11/98,3337294,2935 AVENUE W,111510LL11/98HAZ3002,FACADES,8/31/2017,40.59627052,-73.94042663,315
65076,Brooklyn,LL11/98,3337300,2236 BATCHELDER STREET,111510LL11/98HAZ3003,FACADES,10/27/2017,40.59760087,-73.93930239,315
65608,Manhattan,LL11/98,1063336,910 RIVERSIDE DRIVE,111914FISPHAZ75431,FACADES,10/20/2017,40.8382681,-73.94578049,112
66032,Manhattan,LL11/98,1015624,212 5 AVENUE,112408LL11/98HAZ2359,FACADES,2/13/2017,40.74347152,-73.98868277,105
66033,Manhattan,LL11/98,1017946,251 PARK AVENUE SOUTH,112408LL11/98HAZ2360,FACADES,3/2/2017,40.73834511,-73.98731718,105
66086,Brooklyn,LL11/98,3071363,102 HUMBOLDT STREET,112415FISP85874,FACADES,12/14/2017,40.70498412,-73.94083898,301
66087,Brooklyn,LL11/98,3071362,124 HUMBOLDT STREET,112415FISP85876,FACADES,12/15/2017,40.70557202,-73.9403324,301
66088,Brooklyn,LL11/98,3071361,120 HUMBOLDT STREET,112415FISP85877,FACADES,11/9/2017,40.70527359,-73.94028305,301
66089,Brooklyn,LL11/98,3071359,330 BUSHWICK AVENUE,112415FISP85878,FACADES,11/9/2017,40.70512372,-73.93965694,301
66090,Brooklyn,LL11/98,3071360,155 SEIGEL STREET,112415FISP85880,FACADES,11/9/2017,40.70486305,-73.94021514,301
66091,Manhattan,LL11/98,1078732,51 IRVING PLACE,112415FISPHAZ75865,FACADES,7/26/2017,40.73616577,-73.98752439,105
66092,Manhattan,LL11/98,1078732,51 IRVING PLACE,112415FISPHAZ85866,FACADES,7/26/2017,40.73616577,-73.98752439,105
66093,Brooklyn,LL11/98,3071357,186 BOERUM STREET,112415FISPHAZ85875,FACADES,12/15/2017,40.70574669,-73.94096379,301
66379,Bronx,LL11/98,2002457,244 EAST 161 STREET,112916FISPHAZ76336,FACADES,11/13/2017,40.82545382,-73.91907343,204
66380,Bronx,LL11/98,2002457,244 EAST 161 STREET,112916FISPHAZ86337,FACADES,11/13/2017,40.82545382,-73.91907343,204
66760,Brooklyn,LL11/98,3110191,3500 SNYDER AVENUE,113016FISPNRF47086,FACADES,1/30/2017,40.64883798,-73.94420149,317
66787,Bronx,LL11/98,2114110,1305 MORRIS AVENUE,120111LL11/98HAZ3176,FACADES,2/6/2017,40.83585567,-73.91284766,204
68933,Manhattan,LL11/98,1056498,840 WEST END AVENUE,120214FISPHAZ75438,FACADES,5/30/2017,40.7985057,-73.97045012,107
69052,Brooklyn,LL11/98,3325908,233 SANDS STREET,120312LL11/98HAZ73833,FACADES,12/14/2017,40.70008021,-73.98089863,302
69138,Brooklyn,LL11/98,3076116,320 WILSON AVENUE,120413LL11/98HAZ74743,FACADES,12/14/2017,40.69570107,-73.91766763,304
69139,Brooklyn,LL11/98,3334989,121 TAYLOR STREET,120413LL11/98HAZ74744,FACADES,12/18/2017,40.70594834,-73.96361604,301
69140,Brooklyn,LL11/98,3059905,528 BEDFORD AVENUE,120413LL11/98HAZ74745,FACADES,12/18/2017,40.7053308,-73.96317091,301
69141,Brooklyn,LL11/98,3334990,83 TAYLOR STREET,120413LL11/98HAZ74747,FACADES,12/14/2017,40.70511971,-73.9648939,301
69142,Brooklyn,LL11/98,3324615,180 TROY AVENUE,120413LL11/98HAZ74763,FACADES,4/26/2017,40.6732344,-73.93682221,308
69143,Brooklyn,LL11/98,3324614,1191 PARK PLACE,120413LL11/98HAZ74764,FACADES,4/26/2017,40.67308393,-73.937671,308
69144,Brooklyn,LL11/98,3324613,1185 PARK PLACE,120413LL11/98HAZ74765,FACADES,1/27/2017,40.67331509,-73.93846528,308
69145,Brooklyn,LL11/98,3324612,193 ALBANY AVENUE,120413LL11/98HAZ74766,FACADES,1/27/2017,40.6740429,-73.93834034,308
69146,Brooklyn,LL11/98,3324617,162 TROY AVENUE,120413LL11/98HAZ74767,FACADES,1/27/2017,40.67393457,-73.93675851,308
69147,Brooklyn,LL11/98,3324611,1400 BERGEN ST,120413LL11/98HAZ74768,FACADES,1/26/2017,40.6750479,-73.9383875,308
69148,Manhattan,LL11/98,1077129,133 WEST 90 STREET,120413LL11/98HAZ74868,FACADES,4/25/2017,40.79011994,-73.97183281,107
69149,Manhattan,LL11/98,1082365,403 EAST 93 STREET,120413LL11/98HAZ74872,FACADES,4/18/2017,40.78149314,-73.94548489,108
69150,Manhattan,LL11/98,1082368,417 EAST 93 STREET,120413LL11/98HAZ74875,FACADES,4/18/2017,40.78117979,-73.94477566,108
69151,Manhattan,LL11/98,1082366,1830 1 AVENUE,120413LL11/98HAZ74876,FACADES,4/18/2017,40.7820225,-73.94479511,108
69152,Brooklyn,LL11/98,3137572,926 49 STREET,120413LL11/98HAZ74885,FACADES,7/20/2017,40.63955756,-74.00004529,312
69153,Brooklyn,LL11/98,3324616,1008 ST MARKS AVENUE,120413LL11/98HAZ75161,FACADES,1/27/2017,40.67417792,-73.93756869,308
69154,Manhattan,LL11/98,1054368,1934 LEXINGTON AVENUE,120413LL11/98HAZ75245,FACADES,12/14/2017,40.80099494,-73.94027192,111
69324,Brooklyn,LL11/98,3324968,153 MARCUS GARVEY BOULEVARD,120606LL11/98HAZA551,FACADES,4/25/2017,40.6931064,-73.93957093,303
69325,Brooklyn,LL11/98,3324969,927 DEKALB AVENUE,120606LL11/98HAZA552,FACADES,7/27/2017,40.69321885,-73.93858672,303
69326,Brooklyn,LL11/98,3336072,238 BOND STREET,120606LL11/98HAZA553,FACADES,12/20/2017,40.68272023,-73.9890473,306
69450,Manhattan,LL11/98,1004992,234 EAST 4 STREET,120711LL11/98LLFJL02,FACADES,10/2/2017,40.72331059,-73.9831399,103
69451,Manhattan,LL11/98,1035439,415 MADISON AVENUE,120711LL11/98LLFJL03,FACADES,1/13/2017,40.75666405,-73.97604995,105
69560,Manhattan,LL11/98,1049919,311 EAST 83 STREET,120716FISPHAZ86506,FACADES,9/12/2017,40.77572543,-73.95217433,108
71288,Queens,LL11/98,4210057,164-30 HILLSIDE AVENUE,121514FISPHAZ75446,FACADES,8/28/2017,40.70883491,-73.79766589,412
71428,Manhattan,LL11/98,1083428,64 ESSEX STREET,121615FISPHAZ75941,FACADES,12/20/2017,40.71736891,-73.98834045,103
71429,Manhattan,LL11/98,1083428,64 ESSEX STREET,121615FISPHAZ85942,FACADES,12/20/2017,40.71736891,-73.98834045,103
71651,Manhattan,LL11/98,1023753,115 WEST 58 STREET,121714FISP75449,FACADES,5/4/2017,40.76544316,-73.97725327,105
71652,Manhattan,LL11/98,1072488,304 EAST 65 STREET,121714FISPHAZ75450,FACADES,8/28/2017,40.76397062,-73.96152987,108
71801,Manhattan,LL11/98,1084184,159-30 HARLEM RIVER DRIVE,121913LL11/98HAZ74989,FACADES,4/25/2017,40.8332444,-73.9360537,110
71802,Manhattan,LL11/98,1082320,183 EAST 98 STREET,121913LL11/98HAZ74990,FACADES,1/26/2017,40.78693134,-73.9486508,111
71976,Manhattan,LL11/98,1078040,80 COLUMBIA STREET,122016FISPHAZ86374,FACADES,10/27/2017,40.71810867,-73.97916925,103
72077,Manhattan,LL11/98,1001024,96 BROADWAY,122116FISPHAZ86507,FACADES,5/4/2017,40.70796427,-74.01111401,101
72236,Brooklyn,LL11/98,3324616,1008 ST MARKS AVENUE,122315FISPHAZ85916,FACADES,1/27/2017,40.67417792,-73.93756869,308
72237,Brooklyn,LL11/98,3324615,180 TROY AVENUE,122315FISPHAZ85919,FACADES,4/26/2017,40.6732344,-73.93682221,308
72238,Brooklyn,LL11/98,3324611,1400 BERGEN ST,122315FISPHAZ85920,FACADES,1/26/2017,40.6750479,-73.9383875,308
72239,Brooklyn,LL11/98,3325908,233 SAND STREET,122315FISPHAZ85924,FACADES,12/14/2017,40.70008021,-73.98089863,302
72240,Brooklyn,LL11/98,3324614,1191 PARK PLACE,122315FISPHAZ85926,FACADES,4/26/2017,40.67308393,-73.937671,308
72241,Brooklyn,LL11/98,3324612,193 ALBANY AVENUE,122315FISPHAZ85929,FACADES,1/27/2017,40.6740429,-73.93834034,308
72242,Brooklyn,LL11/98,3324613,205 ALBANY AVENUE,122315FISPHAZ85930,FACADES,1/27/2017,40.67331509,-73.93846528,308
72433,Brooklyn,LL11/98,3327759,1239 STANLEY AVENUE,122812LL11/98HAZ74658,FACADES,4/26/2017,40.66648757,-73.86369888,305
72434,Brooklyn,LL11/98,3327757,1308 LORING AVENUE,122812LL11/98HAZ74659,FACADES,10/27/2017,40.66723047,-73.8629628,305
72578,Manhattan,LL11/98,1054368,1934 LEXINGTON AVENUE,122915FISPHAZ85914,FACADES,12/14/2017,40.80099494,-73.94027192,111
72680,Brooklyn,LL11/98,3324617,162 TROY AVENUE,123015FISPHAZ85922,FACADES,1/27/2017,40.67393457,-73.93675851,308
72681,Manhattan,LL11/98,1035366,531 5 AVENUE,123015FISPHAZ85931,FACADES,7/3/2017,40.75483917,-73.97940853,105
73587,Manhattan,LL11/98,1077414,7 SAINT JAMES PLACE,123112LL11/98HAZ74567,FACADES,10/27/2017,40.71010827,-73.99921547,103
73588,Manhattan,LL11/98,1077419,40 MADISON STREET,123112LL11/98HAZ74569,FACADES,4/26/2017,40.71147501,-73.99876548,103
73589,Manhattan,LL11/98,1079429,860 AMSTERDAM AVENUE,123112LL11/98HAZ74804,FACADES,1/26/2017,40.7983066,-73.96762619,107
73590,Manhattan,LL11/98,1078408,401 WEST 16 STREET,123112LL11/98HAZ74805,FACADES,11/13/2017,40.74258181,-74.00471234,104
73667,Manhattan,LL11/98,1012576,401 WEST 19 STREET,123113LL11/98HAZ74811,FACADES,12/14/2017,40.74445324,-74.00370073,104
